GLOBALSTAR M057         
1 25943U 99058A   24185.89515924 -.00000039  00000+0  48580-3 0  9997
2 25943  51.9973 256.6265 0001844  24.6172 335.4765 12.24788592124255
GLOBALSTAR M059         
1 25944U 99058B   24186.09462133 -.00000050  00000+0  45166-3 0  9994
2 25944  52.0025  68.8622 0001020  24.8588 123.8140 11.99963739121000
GLOBALSTAR M056         
1 25945U 99058C   24186.14887944 -.00000115  00000+0 -32386-3 0  9995
2 25945  51.9974  79.6114 0000344 141.3618 335.4667 12.04775365120721
GLOBALSTAR M031         
1 25946U 99058D   24186.24970473 -.00000154  00000+0 -64046-3 0  9998
2 25946  51.9977 352.4909 0001654 160.0268  12.9500 12.16010856122458
GLOBALSTAR M039         
1 25961U 99062A   24185.53061316 -.00000073  00000+0  17216-3 0  9994
2 25961  51.9832 250.6318 0002403 287.7514  72.3090 12.62295685136187
GLOBALSTAR M034         
1 25962U 99062B   24185.74365008 -.00000045  00000+0  56503-3 0  9994
2 25962  51.9834 197.1263 0013676 104.0314  67.3661 11.79428613 97277
GLOBALSTAR M029         
1 25963U 99062C   24186.08539223 -.00000078  00000+0  10634-3 0  9996
2 25963  51.9821 317.2239 0003220 145.9980  25.4838 11.99879810127387
GLOBALSTAR M061         
1 25964U 99062D   24186.53865235 -.00000050  00000+0  50146-3 0  9994
2 25964  51.9813  14.4863 0006595  37.9395 355.5507 11.76762367 80545
